#aV2013 12 19  0  0  0.00000000     288 DD+AD WGS84 FIT  NGA
## 1771 345600.00000000   300.00000000 56645 0.0000000000000
+   31     1  2  3  4  5  6  7  8  9 10 11 12 13 14 15 16 17
+         18 19 20 21 22 23 24 25 26 27 28 29 31 32  0  0  0
+          0  0  0  0  0  0  0  0  0  0  0  0  0  0  0  0  0
+          0  0  0  0  0  0  0  0  0  0  0  0  0  0  0  0  0
+          0  0  0  0  0  0  0  0  0  0  0  0  0  0  0  0  0
++         2  2  2  2  2  2  2  2  2  2  2  2  2  2  2  2  2
++         2  2  2  2  2  2  2  2  2  2  2  2  2  2  0  0  0
++         0  0  0  0  0  0  0  0  0  0  0  0  0  0  0  0  0
++         0  0  0  0  0  0  0  0  0  0  0  0  0  0  0  0  0
++         0  0  0  0  0  0  0  0  0  0  0  0  0  0  0  0  0
%c cc cc ccc ccc cccc cccc cccc cccc ccccc ccccc ccccc ccccc
%c cc cc ccc ccc cccc cccc cccc cccc ccccc ccccc ccccc ccccc
%f  0.0000000  0.000000000  0.00000000000  0.000000000000000
%f  0.0000000  0.000000000  0.00000000000  0.000000000000000
%i    0    0    0    0      0      0      0      0         0
%i    0    0    0    0      0      0      0      0         0
/*      NGA, ST. LOUIS,MO.                                  
/*   EPHEMERIS COMPUTED FROM  1 DAYS OF DATA                
/*   EPOCHA SMOOTHER                                       
/* CCCCCCCCCCCCCCCCCCCCCCCCCCCCCCCCCCCCCCCCCCCCCCCCCCCCCCCCC
*  2013 12 19  0  5  0.00000000
P  1 -17527.731847  -4181.721541  19515.040448     94.327369                    
V  1 -10316.125392 -22608.587178 -13972.387752      0.028144                    
P  2  14398.376576  22489.975801  -2433.174578    467.671214                    
V  2  -1080.783155   4411.543695  30732.654828      0.022117                    
P  3 -19748.324157  -9507.605791 -15659.938154    301.007287                    
V  3  18597.023255  -4156.697825 -21508.378731      0.048399                    
P  4   4153.655175  23895.584417  10221.304716      4.302451                    
V  4  -9327.751998 -10400.258771  27535.041458      0.003535                    
P  5   8983.067691  13818.435086 -20839.808464   -395.006625                    
V  5 -14915.085300  21860.973292   8238.186976      0.010293                    
P  6 -13165.054832 -13385.136003 -18880.350933    198.938939                    
V  6  23971.749695  -1970.964815 -14883.665074      0.161901                    
P  7 -10632.387033  11332.514266 -21425.113271    293.054953                    
V  7 -12684.371553 -24272.809739  -6834.391106      0.041916                    
P  8  -3463.759208  20368.828205 -16179.660055     10.651020                    
V  8  -8874.585956 -19085.552218 -22516.658647      0.002211                    
P  9  -1638.131379  20951.134985 -16680.689350    291.485572                    
V  9 -10506.670143 -17303.511492 -21528.598775      0.028351                    
P 10  -6332.398047  23473.488310 -10492.940220   -106.444851                    
V 10  -9861.177124   9110.687980  27601.635803     -0.015520                    
P 11 -22131.317414  -9081.893928  11292.206868   -447.911049                    
V 11  -7830.195434 -13627.337626 -25009.165538     -0.033047                    
P 12  17794.305524  -3276.405329  19319.639098    174.838605                    
V 12 -13087.197763  20907.383407  15764.474507      0.023083                    
P 13 -21900.797723   6200.823033 -13938.951585     48.664209                    
V 13 -16961.722893  -4126.054250  24913.883507     -0.037952                    
P 14   5133.327416 -14432.508901  21899.533712    207.398887                    
V 14  27045.464849   3541.726124  -4184.440697     -0.011407                    
P 15  25868.878041   4121.585660  -5266.715614   -152.955114                    
V 15  -6636.573236   3092.412680 -30131.099844     -0.019999                    
P 16  -7912.481598 -13367.865164 -21517.482587   -238.402243                    
V 16  16388.690904 -21771.328147   7841.212382      0.012474                    
P 17  -4732.430740  14688.921845  21832.781158    -51.277808                    
V 17 -27025.995202  -2744.125804  -4291.400043     -0.034963                    
P 18  16546.329680 -19954.786929  -4462.936166    291.218899                    
V 18    181.192230   7532.139973 -30478.919446      0.021128                    
P 19 -25003.220926  -7625.672219  -5986.656757   -426.310898                    
V 19   7585.369596  -1197.392312 -30361.253417     -0.025687                    
P 20 -18777.116393   7398.902229  17038.100365    145.729427                    
V 20   8701.205272 -20501.448873  18366.559031      0.030739                    
P 21   9486.176467 -13781.170537 -19926.721099   -333.683916                    
V 21  13813.496496  23101.728924  -9616.694671     -0.017332                    
P 22   9345.352769 -23956.870980   6520.958303    201.574284                    
V 22   7620.834148  -4775.945234 -29506.775259      0.024131                    
P 23 -26589.640415    691.228791  -3015.965304     20.325036                    
V 23  -3752.012239  -2883.389072  31035.586782     -0.033031                    
P 24  18332.354748   8776.063784  17132.031339    -20.050934                    
V 24   8681.100020  20012.557150 -19462.383692     -0.006727                    
P 25  18466.142319 -15718.473996  10647.954099      3.315046                    
V 25  -5434.663408  12676.887747  28099.430309      0.026866                    
P 26  17569.194480  13216.198635 -15774.542106    218.445367                    
V 26 -18697.164518  -1374.106977 -22622.385151     -0.105986                    
P 27 -16205.561048 -12486.587309 -16957.698643     -8.959737                    
V 27  21560.455102   -848.502848 -19963.108515     -0.027083                    
P 28 -12566.507565  22887.830482   4956.503870    317.677116                    
V 28  -4916.177684   3276.795433 -31582.168773      0.029447                    
P 29  23991.238427  -4809.434336 -10244.494046    496.310580                    
V 29  12793.014330   3541.915242  28221.225265      0.030495                    
P 31  -5589.306469 -24452.793053   8425.046037    331.308620                    
V 31   6636.120138   8479.693450  29901.501728      0.005333                    
P 32 -14834.287059  -5753.860853  21278.723905   -514.550936                    
V 32  15753.167445 -21892.984537   5620.588401      0.054064                    
EOF
